{
  "type": "FeatureCollection",
  "features": [
    {
      "type": "Feature",
      "properties": {
        "norad_id": 42988,
        "name": "SKYSAT-C10",
        "group": "resource",
        "lat": -69.83252411399975,
        "lon": 140.265126300098,
        "alt_km": 480.4234536312624,
        "timestamp": "2025-12-14T14:39:29.033949+00:00",
        "meta_object_name": "SKYSAT-C10",
        "meta_object_id": "2017-068B",
        "meta_epoch": "2025-12-13T21:43:34.758624",
        "meta_mean_motion": 15.32096942,
        "meta_eccentricity": 0.00053821,
        "meta_inclination": 97.4253,
        "meta_ra_of_asc_node": 118.759,
        "meta_arg_of_pericenter": 100.2899,
        "meta_mean_anomaly": 259.8949,
        "meta_ephemeris_type": 0,
        "meta_classification_type": "U",
        "meta_norad_cat_id": 42988,
        "meta_element_set_no": 999,
        "meta_rev_at_epoch": 45397,
        "meta_bstar": 0.00042578818,
        "meta_mean_motion_dot": 0.0001313,
        "meta_mean_motion_ddot": 0,
        "tle_line1": "1 42988U 17068B   25347.90526341  .00013130  00000+0  42579-3 0  9991",
        "tle_line2": "2 42988  97.4253 118.7590 0005382 100.2899 259.8949 15.32096942453976"
      },
      "geometry": {
        "type": "Point",
        "coordinates": [
          140.265126300098,
          -69.83252411399975
        ]
      }
    },
    {
      "type": "Feature",
      "properties": {
        "norad_id": 42989,
        "name": "SKYSAT-C9",
        "group": "resource",
        "lat": 16.370441824227065,
        "lon": -58.92783990550752,
        "alt_km": 457.37224790182427,
        "timestamp": "2025-12-14T14:39:29.033960+00:00",
        "meta_object_name": "SKYSAT-C9",
        "meta_object_id": "2017-068C",
        "meta_epoch": "2025-12-13T22:18:57.844224",
        "meta_mean_motion": 15.36090896,
        "meta_eccentricity": 0.001063,
        "meta_inclination": 97.4183,
        "meta_ra_of_asc_node": 118.1925,
        "meta_arg_of_pericenter": 83.6257,
        "meta_mean_anomaly": 276.6197,
        "meta_ephemeris_type": 0,
        "meta_classification_type": "U",
        "meta_norad_cat_id": 42989,
        "meta_element_set_no": 999,
        "meta_rev_at_epoch": 45426,
        "meta_bstar": 0.00043719245,
        "meta_mean_motion_dot": 0.00015328,
        "meta_mean_motion_ddot": 0,
        "tle_line1": "1 42989U 17068C   25347.92983616  .00015328  00000+0  43719-3 0  9994",
        "tle_line2": "2 42989  97.4183 118.1925 0010630  83.6257 276.6197 15.36090896454260"
      },
      "geometry": {
        "type": "Point",
        "coordinates": [
          -58.92783990550752,
          16.370441824227065
        ]
      }
    },
    {
      "type": "Feature",
      "properties": {
        "norad_id": 42990,
        "name": "SKYSAT-C8",
        "group": "resource",
        "lat": 65.83644705856678,
        "lon": -44.477114666715416,
        "alt_km": 461.257783537706,
        "timestamp": "2025-12-14T14:39:29.033970+00:00",
        "meta_object_name": "SKYSAT-C8",
        "meta_object_id": "2017-068D",
        "meta_epoch": "2025-12-13T22:30:02.820096",
        "meta_mean_motion": 15.32955808,
        "meta_eccentricity": 0.00015196,
        "meta_inclination": 97.4275,
        "meta_ra_of_asc_node": 117.9425,
        "meta_arg_of_pericenter": 343.0823,
        "meta_mean_anomaly": 17.0368,
        "meta_ephemeris_type": 0,
        "meta_classification_type": "U",
        "meta_norad_cat_id": 42990,
        "meta_element_set_no": 999,
        "meta_rev_at_epoch": 45389,
        "meta_bstar": 0.00041268299,
        "meta_mean_motion_dot": 0.00013066,
        "meta_mean_motion_ddot": 0,
        "tle_line1": "1 42990U 17068D   25347.93753264  .00013066  00000+0  41268-3 0  9995",
        "tle_line2": "2 42990  97.4275 117.9425 0001519 343.0823  17.0368 15.32955808453898"
      },
      "geometry": {
        "type": "Point",
        "coordinates": [
          -44.477114666715416,
          65.83644705856678
        ]
      }
    },
    {
      "type": "Feature",
      "properties": {
        "norad_id": 42991,
        "name": "SKYSAT-C7",
        "group": "resource",
        "lat": -35.426382243545554,
        "lon": 124.98368902366128,
        "alt_km": 474.759387248916,
        "timestamp": "2025-12-14T14:39:29.033981+00:00",
        "meta_object_name": "SKYSAT-C7",
        "meta_object_id": "2017-068E",
        "meta_epoch": "2025-12-13T20:00:25.954272",
        "meta_mean_motion": 15.32357322,
        "meta_eccentricity": 0.00076001,
        "meta_inclination": 97.4283,
        "meta_ra_of_asc_node": 118.8786,
        "meta_arg_of_pericenter": 53.5577,
        "meta_mean_anomaly": 306.6364,
        "meta_ephemeris_type": 0,
        "meta_classification_type": "U",
        "meta_norad_cat_id": 42991,
        "meta_element_set_no": 999,
        "meta_rev_at_epoch": 45394,
        "meta_bstar": 0.000416982,
        "meta_mean_motion_dot": 0.00012968,
        "meta_mean_motion_ddot": 0,
        "tle_line1": "1 42991U 17068E   25347.83363373  .00012968  00000+0  41698-3 0  9990",
        "tle_line2": "2 42991  97.4283 118.8786 0007600  53.5577 306.6364 15.32357322453940"
      },
      "geometry": {
        "type": "Point",
        "coordinates": [
          124.98368902366128,
          -35.426382243545554
        ]
      }
    },
    {
      "type": "Feature",
      "properties": {
        "norad_id": 42992,
        "name": "SKYSAT-C6",
        "group": "resource",
        "lat": 73.902204134003,
        "lon": 93.20356150868001,
        "alt_km": 460.64663687254597,
        "timestamp": "2025-12-14T14:39:29.033991+00:00",
        "meta_object_name": "SKYSAT-C6",
        "meta_object_id": "2017-068F",
        "meta_epoch": "2025-12-13T21:04:49.027008",
        "meta_mean_motion": 15.31520469,
        "meta_eccentricity": 0.00051491,
        "meta_inclination": 97.4317,
        "meta_ra_of_asc_node": 119.3609,
        "meta_arg_of_pericenter": 79.1268,
        "meta_mean_anomaly": 281.0552,
        "meta_ephemeris_type": 0,
        "meta_classification_type": "U",
        "meta_norad_cat_id": 42992,
        "meta_element_set_no": 999,
        "meta_rev_at_epoch": 45393,
        "meta_bstar": 0.00040769648,
        "meta_mean_motion_dot": 0.00012343,
        "meta_mean_motion_ddot": 0,
        "tle_line1": "1 42992U 17068F   25347.87834522  .00012343  00000+0  40770-3 0  9991",
        "tle_line2": "2 42992  97.4317 119.3609 0005149  79.1268 281.0552 15.31520469453933"
      },
      "geometry": {
        "type": "Point",
        "coordinates": [
          93.20356150868001,
          73.902204134003
        ]
      }
    },
    {
      "type": "Feature",
      "properties": {
        "norad_id": 43111,
        "name": "CARTOSAT-2F",
        "group": "resource",
        "lat": 77.6236494436511,
        "lon": -97.27794891657717,
        "alt_km": 500.0745199183875,
        "timestamp": "2025-12-14T14:39:29.034001+00:00",
        "meta_object_name": "CARTOSAT-2F",
        "meta_object_id": "2018-004A",
        "meta_epoch": "2025-12-13T23:59:37.612896",
        "meta_mean_motion": 15.19292995,
        "meta_eccentricity": 0.00010983,
        "meta_inclination": 97.432,
        "meta_ra_of_asc_node": 45.6165,
        "meta_arg_of_pericenter": 137.7125,
        "meta_mean_anomaly": 222.4195,
        "meta_ephemeris_type": 0,
        "meta_classification_type": "U",
        "meta_norad_cat_id": 43111,
        "meta_element_set_no": 999,
        "meta_rev_at_epoch": 43921,
        "meta_bstar": 0.0002778104,
        "meta_mean_motion_dot": 5.795e-05,
        "meta_mean_motion_ddot": 0,
        "tle_line1": "1 43111U 18004A   25347.99974089  .00005795  00000+0  27781-3 0  9992",
        "tle_line2": "2 43111  97.4320  45.6165 0001098 137.7125 222.4195 15.19292995439214"
      },
      "geometry": {
        "type": "Point",
        "coordinates": [
          -97.27794891657717,
          77.6236494436511
        ]
      }
    },
    {
      "type": "Feature",
      "properties": {
        "norad_id": 43259,
        "name": "GAOFEN-1 02",
        "group": "resource",
        "lat": -60.8923507382749,
        "lon": 61.18445748766425,
        "alt_km": 647.7578474702723,
        "timestamp": "2025-12-14T14:39:29.034012+00:00",
        "meta_object_name": "GAOFEN-1 02",
        "meta_object_id": "2018-031A",
        "meta_epoch": "2025-12-14T00:17:57.987744",
        "meta_mean_motion": 14.76421352,
        "meta_eccentricity": 0.00018159,
        "meta_inclination": 98.0807,
        "meta_ra_of_asc_node": 45.8021,
        "meta_arg_of_pericenter": 211.7046,
        "meta_mean_anomaly": 148.4054,
        "meta_ephemeris_type": 0,
        "meta_classification_type": "U",
        "meta_norad_cat_id": 43259,
        "meta_element_set_no": 999,
        "meta_rev_at_epoch": 41537,
        "meta_bstar": 0.00026696955,
        "meta_mean_motion_dot": 1.804e-05,
        "meta_mean_motion_ddot": 0,
        "tle_line1": "1 43259U 18031A   25348.01247671  .00001804  00000+0  26697-3 0  9991",
        "tle_line2": "2 43259  98.0807  45.8021 0001815 211.7046 148.4054 14.76421352415374"
      },
      "geometry": {
        "type": "Point",
        "coordinates": [
          61.18445748766425,
          -60.8923507382749
        ]
      }
    }
  ]
}